DIAMOND RED             
1 42783U 17036U   24040.06858574  .00125453  00000+0  12250-2 0  9995
2 42783  97.1142  77.5027 0002407 339.2301  20.8861 15.65783266369497
DIAMOND GREEN           
1 42785U 17036W   24040.05248105  .00174463  00000+0  12915-2 0  9992
2 42785  97.1107  78.5605 0001587 327.6934  32.4232 15.72404545369550
DIAMOND BLUE            
1 42786U 17036X   24040.04440061  .00144197  00000+0  12513-2 0  9992
2 42786  97.1151  78.0363 0002114 319.6567  40.4538 15.68657466369517
CICERO 6                
1 42793U 17036AE  24039.61625152  .00075819  00000+0  10033-2 0  9996
2 42793  97.1146  75.8892 0003212 334.6720  25.4379 15.58062233369448
CORVUS BC2              
1 42846U 17042X   24039.51929191  .00004761  00000+0  42446-3 0  9993
2 42846  97.3722 231.9532 0009177 131.0585 229.1431 14.96397534358041
CORVUS BC1              
1 42847U 17042Y   24040.49619986  .00004864  00000+0  43174-3 0  9994
2 42847  97.3733 233.2567 0009411 124.3135 235.8980 14.96560922358208
MIRATA                  
1 43015U 17073C   24039.57081572  .00027349  00000+0  14518-2 0  9999
2 43015  97.6107 286.3240 0188879 342.0005  17.4589 15.01170449336845
MAKERSAT 0              
1 43016U 17073D   24039.60849109  .00018019  00000+0  10979-2 0  9993
2 43016  97.6017 282.4388 0208450 357.8312   2.1983 14.94029910336542
CORVUS BC3              
1 43118U 18004H   24040.13980009  .00081894  00000+0  10943-2 0  9998
2 43118  97.3013 121.6126 0004459 349.4991  10.6171 15.57772710338655
GOMX-4B                 
1 43196U 18015E   24040.02584132  .00045409  00000+0  82606-3 0  9999
2 43196  97.5961 205.3597 0010405  67.6604 292.5748 15.49329714335443
GOMX-4A                 
1 43197U 18015F   24040.41968925  .00051334  00000+0  76558-3 0  9992
2 43197  97.5919 209.3946 0009375  57.7433 302.4728 15.54876153335756
CUBEBEL-1 (BSUSAT-1)    
1 43666U 18083E   24039.81892763  .00347866  00000+0  18514-2 0  9991
2 43666  97.3398  82.1663 0002243 330.7077  29.4065 15.79511683293893
CICERO 10               
1 43690U 18088A   24039.67909238  .00067730  00000+0  10833-2 0  9998
2 43690  85.0213 270.9112 0010650  61.6204 298.6126 15.52831359291969
PROXIMA I               
1 43694U 18088E   24040.12303577  .00093410  00000+0  10864-2 0  9996
2 43694  85.0124 264.8132 0009486  29.0854 331.0935 15.61349632292422
PROXIMA II              
1 43696U 18088G   24040.49378955  .00090220  00000+0  10681-2 0  9993
2 43696  85.0109 264.6683 0009209  25.4452 334.7262 15.60898565292474
SIRION PATHFINDER-2     
1 43759U 18099B   24039.90716234  .00007034  00000+0  55378-3 0  9999
2 43759  97.5454  99.7193 0015884  15.3377 344.8325 15.01012443283108
CORVUS BC4              
1 43767U 18099K   24039.88599839  .00006075  00000+0  48660-3 0  9995
2 43767  97.5306  97.3037 0012748  73.2419 287.0203 15.00437578282998
MOVE-II                 
1 43780U 18099Y   24039.72166823  .00018949  00000+0  11557-2 0  9993
2 43780  97.5412 104.3687 0008565  67.2920 292.9214 15.10354259283356
SPACEBEE-7              
1 43816U 18099BL  24040.13791886  .00015332  00000+0  10103-2 0  9992
2 43816  97.5675 105.7111 0011236  15.8587 344.2991 15.07542861282942
SPACEBEE-5              
1 43817U 18099BM  24040.13797648  .00636583  00000+0  47682-2 0  9994
2 43817  97.5503 123.0657 0008513 296.3511  63.6876 15.70759572284000
SPACEBEE-6              
1 43818U 18099BN  24040.14959478  .00029424  00000+0  15787-2 0  9998
2 43818  97.5593 109.3668 0010270  24.2375 335.9338 15.14857887283326
SHIELDS 1               
1 43850U 18104B   24039.90634631  .00015759  00000+0  48185-3 0  9999
2 43850  85.0258  10.5613 0011091 181.6600 178.4614 15.33672822286321
STF-1                   
1 43852U 18104D   24040.37993400  .00638850  17126-3  15535-2 0  9992
2 43852  85.0013   0.9983 0011826 128.7779 231.4562 15.96150702287331
ZACUBE-2                
1 43907U 18111AH  24040.44105523  .00125359  00000+0  11698-2 0  9990
2 43907  97.0939 282.2343 0011752  65.6760 294.5727 15.66838198285918
LUME 1                  
1 43908U 18111AJ  24040.22797312  .01498519  17102-2  13747-2 0  9993
2 43908  97.0906 290.0862 0004400 100.8831 259.2950 16.12873990286412
SONATE                  
1 44400U 19038Q   24039.93123889  .00020485  00000+0  74297-3 0  9994
2 44400  97.7062  28.9220 0017099 195.8263 164.2444 15.28238428254300
LUCKY-7                 
1 44406U 19038W   24040.48765826  .00029705  00000+0  89379-3 0  9996
2 44406  97.6998  32.1570 0015368 179.3185 180.8081 15.34211066254571
BEESAT 9                
1 44412U 19038AC  24039.95717551  .00088952  00000+0  15067-2 0  9996
2 44412  97.6858  36.7556 0011874 153.9659 206.2191 15.51152829254563
JAISAT-1                
1 44419U 19038F   24039.95255566  .00085570  00000+0  14646-2 0  9991
2 44419  97.6844  37.8463 0011551 152.5780 207.6083 15.50876154254946
DUCHIFAT-3              
1 44854U 19089C   24040.45852578  .00015774  00000+0  90730-3 0  9991
2 44854  36.9595 107.6915 0008018 122.3662 237.7860 15.11797608228686
M2 PATHFINDER           
1 45727U 20037E   24040.47672221  .00004914  00000+0  44337-3 0  9999
2 45727  97.7657 217.7546 0011242 189.7634 170.3370 14.95943118196695
NETSAT-4                
1 46504U 20068U   24039.82077535  .00013283  00000+0  77827-3 0  9990
2 46504  97.7912 353.9303 0012432  85.0037 275.2611 15.11865731184608
NETSAT-3                
1 46505U 20068V   24040.42650216  .00012170  00000+0  72122-3 0  9999
2 46505  97.7887 354.1981 0011667  90.8403 269.4164 15.11484136184698
NETSAT-1                
1 46506U 20068W   24040.43013383  .00009346  00000+0  57058-3 0  9991
2 46506  97.7906 353.9075 0010092  99.0426 261.1946 15.10491287184678
NETSAT-2                
1 46507U 20068X   24040.42612676  .00012495  00000+0  73431-3 0  9993
2 46507  97.7899 354.2228 0009542 103.4524 256.7769 15.11799159184641
WILDTRACKCUBE-SIMBA     
1 47941U 21022K   24040.48190511  .00014510  00000+0  72668-3 0  9993
2 47941  97.4765 298.6967 0015200 230.9816 129.0065 15.17386701158926
BEESAT-6                
1 47957U 21022AB  24039.68022889  .00069709  00000+0  19365-2 0  9996
2 47957  97.4683 303.7400 0008999 195.4743 164.6227 15.36584103159005
SMOG-1                  
1 47964U 21022AJ  24039.73879665  .00062208  00000+0  16647-2 0  9999
2 47964  97.4791 306.6541 0009233 179.9030 180.2218 15.37778325158194
BCCSAT-1                
1 48041U 21022AK  24040.43261438  .00044416  00000+0  14223-2 0  9997
2 48041  97.4784 305.0112 0008142 183.5013 176.6173 15.32219529158123
BEESAT-5                
1 48083U 21022AM  24039.69718422  .00079478  00000+0  19661-2 0  9996
2 48083  97.4517 304.3905 0008652 186.4588 173.6547 15.40120659158216
BEESAT-7                
1 48084U 21022AN  24039.65587608  .00056130  00000+0  15773-2 0  9993
2 48084  97.4741 304.0505 0009297 199.5010 160.5879 15.36286474157743
BEESAT-8                
1 48085U 21022AP  24039.51507854  .00029470  00000+0  12041-2 0  9996
2 48085  97.4855 301.0745 0012478 219.8390 140.1932 15.24259292158071
LEDSAT                  
1 49069U 21073D   24040.15202527  .00017750  00000+0  82128-3 0  9998
2 49069  97.4545 112.5483 0021585  19.8520 340.3551 15.19986201136827
